[
    {
        "Altitude(m)": 604221.2158320635,
        "Argument of Periapsis(deg)": 0.0,
        "Eccentricity": 0.0,
        "Inclination(deg)": 60.0,
        "Latitude(deg)": 14.117311462496806,
        "Longitude(deg)": 23.334123571411137,
        "Mean Anomaly(deg)": 16.363600000000012,
        "RAAN(deg)": 114.99999999999999,
        "Satellite Name": "Test1 507",
        "Satellite Number": 507,
        "Semi-Major Axis(m)": 6980739.136638005,
        "Time(s)": 0
    },
    {
        "Altitude(m)": 604235.3572536161,
        "Argument of Periapsis(deg)": 0.00010418945913296404,
        "Eccentricity": 0.0,
        "Inclination(deg)": 60.0,
        "Latitude(deg)": 14.651708833971037,
        "Longitude(deg)": 23.622569406598643,
        "Mean Anomaly(deg)": 16.983706145461838,
        "RAAN(deg)": 114.99957995086024,
        "Satellite Name": "Test1 507",
        "Satellite Number": 507,
        "Semi-Major Axis(m)": 6980739.136638005,
        "Time(s)": 10
    }
]